[{
 "type":
 "schnitzler-tagebuch",
 "color":
 "#037a33",
 "filename":
 "entry__1893-06-21",
 "caption":
 "Tagebuch",
 "idno":
 "https://schnitzler-tagebuch.acdh.oeaw.ac.at/entry__1893-06-21.html",
 "head":
 "Tagebuch, 21. Juni 1893",
 "desc":
{"listPerson":
  [
{
 "persName":
 "Marie Glümer",
 "ref":
 "person_15485"},
 {
 "persName":
 "Leopold Rosenberg",
 "ref":
 "person_19372"}],
 "listBibl":
  [
 {
 "title":
 "Ohnmacht",
 "ref":
 "pmb33560"}
 ],
 "listPlace":
  [
 {
 "placeName":
 "Weimar",
 "ref":
 "pmb197"}
 ,  {
 "placeName":
 "W.",
 "ref":
 "pmb92587"}
 ,  {
 "placeName":
 "Ober-Sankt-Veit",
 "ref":
 "pmb91377"}
 ,  {
 "placeName":
 "Wiesbaden",
 "ref":
 "pmb883"}
 ]
}
}, {
 "type":
 "schnitzler-briefe",
 "color":
 "#A63437",
 "filename":
 "L03902",
 "caption":
 "Briefe mit Autorinnen und Autoren",
 "idno":
 "https://schnitzler-briefe.acdh.oeaw.ac.at/L03902.html",
 "head":
 "Arthur Schnitzler an Theodor Herzl, 21. 6. 1893",
 "desc":
{"listPerson":
  [
{
 "persName":
 "Arthur Schnitzler",
 "ref":
 "pmb2121"},
 {
 "persName":
 "Theodor Herzl",
 "ref":
 "pmb11673"},
 {
 "persName":
 "Theodor Herzl",
 "ref":
 "pmb11673"},
 {
 "persName":
 "Pauline Hüft",
 "ref":
 "pmb296738"},
 {
 "persName":
 "Wilhelm Knaack",
 "ref":
 "pmb114944"},
 {
 "persName":
 "Heinrich Franker",
 "ref":
 "pmb157380"},
 {
 "persName":
 "Carla Ernst",
 "ref":
 "pmb15999"},
 {
 "persName":
 "Anton Franz Mayr",
 "ref":
 "pmb99557"},
 {
 "persName":
 "Margarethe Neumann",
 "ref":
 "pmb18233"},
 {
 "persName":
 "Louise Schnitzler",
 "ref":
 "pmb12701"},
 {
 "persName":
 "Julie Herzl",
 "ref":
 "pmb2812"}],
 "listBibl":
  [
 {
 "title":
 "Prinzen aus Genieland. Lustspiel in 4 Akten",
 "ref":
 "pmb63076"}
 ,  {
 "title":
 "Der Flüchtling. Lustspiel in einem Aufzug",
 "ref":
 "pmb63073"}
 ],
 "listPlace":
  [
 {
 "placeName":
 "Wien",
 "ref":
 "pmb50"}
 ,  {
 "placeName":
 "Bad Ischl",
 "ref":
 "pmb213"}
 ,  {
 "placeName":
 "Carl-Theater",
 "ref":
 "pmb118"}
 ,  {
 "placeName":
 "Paris",
 "ref":
 "pmb182"}
 ],
 "listOrg":
  [
 {
 "orgName":
 "Volkstheater",
 "ref":
 "pmb36430"}
 ]
}
}, {
 "type":
 "schnitzler-briefe",
 "color":
 "#A63437",
 "filename":
 "L00224",
 "caption":
 "Briefe mit Autorinnen und Autoren",
 "idno":
 "https://schnitzler-briefe.acdh.oeaw.ac.at/L00224.html",
 "head":
 "Michael Georg Conrad an Arthur Schnitzler, 21. 6. 1893",
 "desc":
{"listPerson":
  [
{
 "persName":
 "Michael Georg Conrad",
 "ref":
 "pmb11098"},
 {
 "persName":
 "Arthur Schnitzler",
 "ref":
 "pmb2121"},
 {
 "persName":
 "Michael Georg Conrad",
 "ref":
 "pmb11098"},
 {
 "persName":
 "Hans Merian",
 "ref":
 "pmb5754"},
 {
 "persName":
 "Heinrich Osten",
 "ref":
 "pmb2509"},
 {
 "persName":
 "Karl Kraus",
 "ref":
 "pmb11988"}],
 "listBibl":
  [
 {
 "title":
 "Der gute Irrtum",
 "ref":
 "pmb33558"}
 ,  {
 "title":
 "Ohnmacht",
 "ref":
 "pmb33560"}
 ,  {
 "title":
 "Die Gesellschaft. Monatsschrift für Litteratur, Kunst und Sozialpolitik",
 "ref":
 "pmb35919"}
 ],
 "listPlace":
  [
 {
 "placeName":
 "München",
 "ref":
 "pmb45258"}
 ,  {
 "placeName":
 "Wien",
 "ref":
 "pmb50"}
 ,  {
 "placeName":
 "I., Innere Stadt",
 "ref":
 "pmb51"}
 ,  {
 "placeName":
 "Grillparzerstraße",
 "ref":
 "pmb412"}
 ]
}
}, {
 "type":
 "schnitzler-briefe",
 "color":
 "#A63437",
 "filename":
 "L00225",
 "caption":
 "Briefe mit Autorinnen und Autoren",
 "idno":
 "https://schnitzler-briefe.acdh.oeaw.ac.at/L00225.html",
 "head":
 "Hugo von Hofmannsthal an Arthur Schnitzler, [21.? 6. 1893]",
 "desc":
{"listPerson":
  [
{
 "persName":
 "Hugo von Hofmannsthal",
 "ref":
 "pmb11740"},
 {
 "persName":
 "Arthur Schnitzler",
 "ref":
 "pmb2121"},
 {
 "persName":
 "Hugo von Hofmannsthal",
 "ref":
 "pmb11740"},
 {
 "persName":
 "Felix Salten",
 "ref":
 "pmb2167"},
 {
 "persName":
 "Peter Michael Braunwarth",
 "ref":
 "pmb119261"},
 {
 "persName":
 "Reinhard Urbach",
 "ref":
 "pmb65504"},
 {
 "persName":
 "Werner Welzig",
 "ref":
 "pmb143327"},
 {
 "persName":
 "Richard Miklin",
 "ref":
 "pmb143331"},
 {
 "persName":
 "Konstanze Fliedl",
 "ref":
 "pmb119271"},
 {
 "persName":
 "Walter Ruprechter",
 "ref":
 "pmb143334"},
 {
 "persName":
 "Susanne Pertlik",
 "ref":
 "pmb143337"}],
 "listBibl":
  [
 {
 "title":
 "Tagebuch",
 "ref":
 "pmb33243"}
 ],
 "listPlace":
  [
 {
 "placeName":
 "Baden bei Wien",
 "ref":
 "pmb662"}
 ]
}
}, {
 "type":
 "wienerschnitzler",
 "color":
 "#6F5106",
 "caption":
 "Wiener Schnitzler",
 "idno":
 "https://wienerschnitzler.org/tag.html#1893-06-21",
 "head":
 "Wien",
 "desc":
{"listPlace":
  [
 {
 "placeName":
 "XIII., Hietzing",
 "ref":
 ""}
 ,  {
 "placeName":
 "I., Innere Stadt",
 "ref":
 ""}
 ]
}
}, {
 "type":
 "schnitzler-cmif",
 "subtype":
 "#j7685005-64da-4e31-99b6-b4641aa1628c",
 "color":
 "#654321",
 "caption":
 "Gedruckte Briefwechsel",
 "head":
 "Arthur Schnitzler an Theodor Herzl, 21. 6. 1893",
 "source":
 "Arthur Schnitzler: Briefe 1875–1912. Hrsg. v. Therese Nickl u. Heinrich Schnitzler. Frankfurt am Main: S. Fischer 1981."
}] 