[{
 "type":
 "schnitzler-tagebuch",
 "color":
 "#037a33",
 "filename":
 "entry__1895-08-25",
 "caption":
 "Tagebuch",
 "idno":
 "https://schnitzler-tagebuch.acdh.oeaw.ac.at/entry__1895-08-25.html",
 "head":
 "Tagebuch, 25. August 1895",
 "desc":
{"listPerson":
  [
{
 "persName":
 "Paul Goldmann",
 "ref":
 "person_15529"}],
 "listPlace":
  [
 {
 "placeName":
 "Jenbach",
 "ref":
 "pmb90956"}
 ,  {
 "placeName":
 "Achen Lake",
 "ref":
 "pmb90186"}
 ,  {
 "placeName":
 "Scholastica",
 "ref":
 "pmb92517"}
 ,  {
 "placeName":
 "Bad Tölz",
 "ref":
 "pmb424"}
 ]
}
}, {
 "type":
 "schnitzler-briefe",
 "color":
 "#A63437",
 "filename":
 "L03864",
 "caption":
 "Briefe mit Autorinnen und Autoren",
 "idno":
 "https://schnitzler-briefe.acdh.oeaw.ac.at/L03864.html",
 "head":
 "Theodor Herzl an Arthur Schnitzler, 25. 8. 1895",
 "desc":
{"listPerson":
  [
{
 "persName":
 "Theodor Herzl",
 "ref":
 "pmb11673"},
 {
 "persName":
 "Arthur Schnitzler",
 "ref":
 "pmb2121"},
 {
 "persName":
 "Theodor Herzl",
 "ref":
 "pmb11673"},
 {
 "persName":
 "?? [Dienstbotin Pension Rudolfshöhe 1895]",
 "ref":
 "pmb298891"}],
 "listPlace":
  [
 {
 "placeName":
 "Bad Aussee",
 "ref":
 "pmb415"}
 ,  {
 "placeName":
 "Bad Ischl",
 "ref":
 "pmb213"}
 ,  {
 "placeName":
 "Hotel und Pension Rudolfshöhe (Leopold Petter)",
 "ref":
 "pmb414"}
 ,  {
 "placeName":
 "Salzburg",
 "ref":
 "pmb30"}
 ,  {
 "placeName":
 "Hôtel Kaiserin Elisabeth",
 "ref":
 "pmb298757"}
 ,  {
 "placeName":
 "Wien",
 "ref":
 "pmb50"}
 ,  {
 "placeName":
 "München",
 "ref":
 "pmb45258"}
 ]
}
}, {
 "type":
 "wienerschnitzler",
 "color":
 "#6F5106",
 "caption":
 "Wiener Schnitzler",
 "idno":
 "https://wienerschnitzler.org/tag.html#1895-08-25",
 "head":
 "Jenbach"
}, {
 "type":
 "wienerschnitzler",
 "color":
 "#6F5106",
 "caption":
 "Wiener Schnitzler",
 "idno":
 "https://wienerschnitzler.org/tag.html#1895-08-25",
 "head":
 "Achensee"
}, {
 "type":
 "wienerschnitzler",
 "color":
 "#6F5106",
 "caption":
 "Wiener Schnitzler",
 "idno":
 "https://wienerschnitzler.org/tag.html#1895-08-25",
 "head":
 "Bad Tölz"
}, {
 "type":
 "wienerschnitzler",
 "color":
 "#6F5106",
 "caption":
 "Wiener Schnitzler",
 "idno":
 "https://wienerschnitzler.org/tag.html#1895-08-25",
 "head":
 "Scholastika",
 "desc":
{"listPlace":
  [
 {
 "placeName":
 "Hotel Scholastika",
 "ref":
 ""}
 ]
}
}, {
 "type":
 "schnitzler-cmif",
 "subtype":
 "#j4f39377-ae1d-48c1-9afa-6e4618284c9a",
 "color":
 "#654321",
 "caption":
 "Gedruckte Briefwechsel",
 "head":
 "Theodor Herzl an Arthur Schnitzler, 25.8.1895",
 "source":
 "Theodor Herzl: Briefe. Anfang Mai 1895 – Anfang Dezember 1898. Bearbeitet von Barbara Schäfer in Zusammenarbeit mit Sofia Gelmann, Chaya Harel, Ines Rubin, Daisy Ticho. Berlin: Propyläen 1990. (Theodor Herzl: Briefe und Tagebücher. Hg. Alex Bein, Hermann Greive, Moshe Schaerf, Julius H. Schoeps, Johannes Wachten. Vierter Band)"
}] 