[{
 "type":
 "schnitzler-tagebuch",
 "color":
 "#037a33",
 "filename":
 "entry__1902-12-28",
 "caption":
 "Tagebuch",
 "idno":
 "https://schnitzler-tagebuch.acdh.oeaw.ac.at/entry__1902-12-28.html",
 "head":
 "Tagebuch, 28. Dezember 1902",
 "desc":
{"listPerson":
  [
{
 "persName":
 "Olga Schnitzler",
 "ref":
 "person_19832"}],
 "listBibl":
  [
 {
 "title":
 "Der einsame Weg. Schauspiel in fünf Akten",
 "ref":
 "pmb29985"}
 ],
 "listPlace":
  [
 {
 "placeName":
 "Pötzleinsdorf",
 "ref":
 "pmb169"}
 ]
}
}, {
 "type":
 "schnitzler-briefe",
 "color":
 "#A63437",
 "filename":
 "L03231",
 "caption":
 "Briefe mit Autorinnen und Autoren",
 "idno":
 "https://schnitzler-briefe.acdh.oeaw.ac.at/L03231.html",
 "head":
 "Paul Goldmann an Arthur Schnitzler, 28. 12. [1902]",
 "desc":
{"listPerson":
  [
{
 "persName":
 "Paul Goldmann",
 "ref":
 "pmb11485"},
 {
 "persName":
 "Arthur Schnitzler",
 "ref":
 "pmb2121"},
 {
 "persName":
 "Paul Goldmann",
 "ref":
 "pmb11485"},
 {
 "persName":
 "Louis Bolle-Ritz",
 "ref":
 "pmb145728"},
 {
 "persName":
 "Theodore Rottenberg",
 "ref":
 "pmb23674"},
 {
 "persName":
 "Ende 1902/Anfang 1903]
                
                  ?? [Partner von Theodore Rottenberg",
 "ref":
 "pmb145973"},
 {
 "persName":
 "Olga Schnitzler",
 "ref":
 "pmb2173"},
 {
 "persName":
 "Eduard Bacher",
 "ref":
 "pmb10809"},
 {
 "persName":
 "Moriz Benedikt",
 "ref":
 "pmb10875"},
 {
 "persName":
 "Ernst Benedikt",
 "ref":
 "pmb10872"}],
 "listBibl":
  [
 {
 "title":
 "Neue Freie Presse",
 "ref":
 "pmb36374"}
 ],
 "listPlace":
  [
 {
 "placeName":
 "Frankfurt am Main",
 "ref":
 "pmb146"}
 ,  {
 "placeName":
 "Wien",
 "ref":
 "pmb50"}
 ,  {
 "placeName":
 "Fürstenhof [Frankfurt am Main]",
 "ref":
 "pmb145714"}
 ,  {
 "placeName":
 "Kaiserstraße [Frankfurt am Main]",
 "ref":
 "pmb145719"}
 ,  {
 "placeName":
 "Münchener Straße",
 "ref":
 "pmb145723"}
 ],
 "listOrg":
  [
 {
 "orgName":
 "Hotel Fürstenhof",
 "ref":
 "pmb145716"}
 ]
}
}, {
 "type":
 "schnitzler-briefe",
 "color":
 "#A63437",
 "filename":
 "L03338",
 "caption":
 "Briefe mit Autorinnen und Autoren",
 "idno":
 "https://schnitzler-briefe.acdh.oeaw.ac.at/L03338.html",
 "head":
 "Felix Salten an Arthur Schnitzler, 28. 12. 1902",
 "desc":
{"listPerson":
  [
{
 "persName":
 "Felix Salten",
 "ref":
 "pmb2167"},
 {
 "persName":
 "Arthur Schnitzler",
 "ref":
 "pmb2121"},
 {
 "persName":
 "Felix Salten",
 "ref":
 "pmb2167"},
 {
 "persName":
 "Leopold Ferdinand Salvator Wölfling",
 "ref":
 "pmb20328"},
 {
 "persName":
 "Luise von Sachsen",
 "ref":
 "pmb23855"},
 {
 "persName":
 "Hugo von Hofmannsthal",
 "ref":
 "pmb11740"},
 {
 "persName":
 "Samuel Fischer",
 "ref":
 "pmb11324"},
 {
 "persName":
 "Wilhelmine Adamović",
 "ref":
 "pmb168208"},
 {
 "persName":
 "André Giron",
 "ref":
 "pmb17058"},
 {
 "persName":
 "Peter Michael Braunwarth",
 "ref":
 "pmb119261"},
 {
 "persName":
 "Reinhard Urbach",
 "ref":
 "pmb65504"},
 {
 "persName":
 "Werner Welzig",
 "ref":
 "pmb143327"},
 {
 "persName":
 "Richard Miklin",
 "ref":
 "pmb143331"},
 {
 "persName":
 "Konstanze Fliedl",
 "ref":
 "pmb119271"},
 {
 "persName":
 "Walter Ruprechter",
 "ref":
 "pmb143334"},
 {
 "persName":
 "Susanne Pertlik",
 "ref":
 "pmb143337"}],
 "listBibl":
  [
 {
 "title":
 "Das gerettete Venedig. Trauerspiel in fünf Aufzügen",
 "ref":
 "pmb31091"}
 ,  {
 "title":
 "Erinnerungen",
 "ref":
 "pmb168879"}
 ,  {
 "title":
 "Tagebuch",
 "ref":
 "pmb33243"}
 ],
 "listPlace":
  [
 {
 "placeName":
 "Montreux",
 "ref":
 "pmb40482"}
 ,  {
 "placeName":
 "Wien",
 "ref":
 "pmb50"}
 ,  {
 "placeName":
 "Hotel du Cygne Montreux",
 "ref":
 "pmb145990"}
 ,  {
 "placeName":
 "Genf",
 "ref":
 "pmb562"}
 ,  {
 "placeName":
 "Schweiz",
 "ref":
 "pmb43435"}
 ,  {
 "placeName":
 "Europa",
 "ref":
 "pmb468"}
 ,  {
 "placeName":
 "Bern",
 "ref":
 "pmb1223"}
 ]
}
}, {
 "type":
 "wienerschnitzler",
 "color":
 "#6F5106",
 "caption":
 "Wiener Schnitzler",
 "idno":
 "https://wienerschnitzler.org/tag.html#1902-12-28",
 "head":
 "Wien",
 "desc":
{"listPlace":
  [
 {
 "placeName":
 "XVIII., Währing",
 "ref":
 ""}
 ,  {
 "placeName":
 "IX., Alsergrund",
 "ref":
 ""}
 ]
}
}] 