[{
 "type":
 "schnitzler-tagebuch",
 "color":
 "#037a33",
 "filename":
 "entry__1915-02-09",
 "caption":
 "Tagebuch",
 "idno":
 "https://schnitzler-tagebuch.acdh.oeaw.ac.at/entry__1915-02-09.html",
 "head":
 "Tagebuch, 9. Februar 1915",
 "desc":
{"listPerson":
  [
{
 "persName":
 "Franz Steiner",
 "ref":
 "person_20372"},
 {
 "persName":
 "Heinrich von Tschirschky-Bögendorf",
 "ref":
 "person_20829"},
 {
 "persName":
 "Berta Zuckerkandl",
 "ref":
 "person_21594"},
 {
 "persName":
 "Hugo von Hofmannsthal",
 "ref":
 "person_16293"},
 {
 "persName":
 "Franz Peter Schubert",
 "ref":
 "person_19902"}],
 "listPlace":
  [
 {
 "placeName":
 "Rumänien",
 "ref":
 "pmb378"}
 ,  {
 "placeName":
 "Italien",
 "ref":
 "pmb40306"}
 ,  {
 "placeName":
 "Trient",
 "ref":
 "pmb954"}
 ,  {
 "placeName":
 "Trieste",
 "ref":
 "pmb91944"}
 ]
}
}, {
 "type":
 "schnitzler-briefe",
 "color":
 "#A63437",
 "filename":
 "L03651",
 "caption":
 "Briefe mit Autorinnen und Autoren",
 "idno":
 "https://schnitzler-briefe.acdh.oeaw.ac.at/L03651.html",
 "head":
 "Stefan Zweig an Arthur Schnitzler, [zwischen 7. und
                  10. 2. 1915?]",
 "desc":
{"listPerson":
  [
{
 "persName":
 "Stefan Zweig",
 "ref":
 "pmb13212"},
 {
 "persName":
 "Arthur Schnitzler",
 "ref":
 "pmb2121"},
 {
 "persName":
 "Stefan Zweig",
 "ref":
 "pmb13212"},
 {
 "persName":
 "Romain Rolland",
 "ref":
 "pmb12543"},
 {
 "persName":
 "Olga Schnitzler",
 "ref":
 "pmb2173"},
 {
 "persName":
 "Paul Block",
 "ref":
 "pmb3256"},
 {
 "persName":
 "Samuel Fischer",
 "ref":
 "pmb11324"},
 {
 "persName":
 "Paul Seippel",
 "ref":
 "pmb259326"},
 {
 "persName":
 "der fiktives russisches Interview verantwortet]
                
                  ?? [Journalist",
 "ref":
 "pmb27739"}],
 "listBibl":
  [
 {
 "title":
 "Berliner Tageblatt",
 "ref":
 "pmb41531"}
 ,  {
 "title":
 "Kultur–?",
 "ref":
 "pmb294010"}
 ,  {
 "title":
 "Schnitzler erhebt Einspruch",
 "ref":
 "pmb298631"}
 ,  {
 "title":
 "Deutsche Tageszeitung",
 "ref":
 "pmb41572"}
 ,  {
 "title":
 "Une protestation d’Arthur Schnitzler",
 "ref":
 "pmb58490"}
 ,  {
 "title":
 "Die neue Rundschau",
 "ref":
 "pmb36156"}
 ,  {
 "title":
 "Journal de Genève",
 "ref":
 "pmb58493"}
 ,  {
 "title":
 "Neue Zürcher Zeitung",
 "ref":
 "pmb42406"}
 ,  {
 "title":
 "Ein Brief Artur Schnitzlers",
 "ref":
 "pmb296393"}
 ,  {
 "title":
 "?? [Fiktives Interview aus St. Petersburg, 1914]",
 "ref":
 "pmb32959"}
 ,  {
 "title":
 "Komödie der Worte",
 "ref":
 "pmb33265"}
 ,  {
 "title":
 "Komödie der Worte. Drei Einakter",
 "ref":
 "pmb30717"}
 ],
 "listPlace":
  [
 {
 "placeName":
 "Wien",
 "ref":
 "pmb50"}
 ,  {
 "placeName":
 "Kochgasse 8",
 "ref":
 "pmb249577"}
 ,  {
 "placeName":
 "Deutschland",
 "ref":
 "pmb151"}
 ,  {
 "placeName":
 "Frankreich",
 "ref":
 "pmb166"}
 ,  {
 "placeName":
 "Schweiz",
 "ref":
 "pmb43435"}
 ,  {
 "placeName":
 "Österreich",
 "ref":
 "pmb41240"}
 ]
}
}, {
 "type":
 "schnitzler-briefe",
 "color":
 "#A63437",
 "filename":
 "L02203",
 "caption":
 "Briefe mit Autorinnen und Autoren",
 "idno":
 "https://schnitzler-briefe.acdh.oeaw.ac.at/L02203.html",
 "head":
 "Arthur Schnitzler an Hermann Bahr, 9. 2. 1915",
 "desc":
{"listPerson":
  [
{
 "persName":
 "Arthur Schnitzler",
 "ref":
 "pmb2121"},
 {
 "persName":
 "Hermann Bahr",
 "ref":
 "pmb10815"},
 {
 "persName":
 "Hermann Bahr",
 "ref":
 "pmb10815"},
 {
 "persName":
 "Hugo Heller",
 "ref":
 "pmb11646"},
 {
 "persName":
 "Anna Bahr-Mildenburg",
 "ref":
 "pmb10818"},
 {
 "persName":
 "Franz Peter Schubert",
 "ref":
 "pmb12729"}],
 "listPlace":
  [
 {
 "placeName":
 "Wien",
 "ref":
 "pmb50"}
 ,  {
 "placeName":
 "Salzburg",
 "ref":
 "pmb30"}
 ,  {
 "placeName":
 "Sternwartestraße 71",
 "ref":
 "pmb168815"}
 ]
}
}, {
 "type":
 "wienerschnitzler",
 "color":
 "#6F5106",
 "caption":
 "Wiener Schnitzler",
 "idno":
 "https://wienerschnitzler.org/tag.html#1915-02-09",
 "head":
 "Wien",
 "desc":
{"listPlace":
  [
 {
 "placeName":
 "IX., Alsergrund",
 "ref":
 ""}
 ,  {
 "placeName":
 "III., Landstraße",
 "ref":
 ""}
 ,  {
 "placeName":
 "XVIII., Währing",
 "ref":
 ""}
 ]
}
}, {
 "type":
 "URL",
 "subtype":
 "schnitzler-kultur",
 "filename":
 "pmb209744",
 "idno":
 "https://schnitzler-kultur.acdh.oeaw.ac.at/pmb209744.html",
 "head":
 "Gesangskonzert Franz Steiner, 9.2.1915",
 "desc":
{"listPerson":
  [
{
 "persName":
 "Franz Steiner",
 "ref":
 ""},
 {
 "persName":
 "Arthur Schnitzler",
 "ref":
 ""},
 {
 "persName":
 "Hugo von Hofmannsthal",
 "ref":
 ""},
 {
 "persName":
 "Olga Schnitzler",
 "ref":
 ""}],
 "listPlace":
  [
 {
 "placeName":
 "Wiener Konzerthaus",
 "ref":
 ""}
 ]
}
}, {
 "type":
 "schnitzler-bahr",
 "color":
 "#639FF9",
 "filename":
 "L041134",
 "caption":
 "Schnitzler/Bahr",
 "idno":
 "https://schnitzler-bahr.acdh.oeaw.ac.at/L041134.html",
 "head":
 "Schnitzler an Bahr, 9. 2. 1915",
 "desc":
{"listPerson":
  [
{
 "persName":
 "Hermann Bahr",
 "ref":
 "pmb10815"},
 {
 "persName":
 "Hugo Heller",
 "ref":
 "pmb11646"},
 {
 "persName":
 "Anna Bahr-Mildenburg",
 "ref":
 "pmb10818"},
 {
 "persName":
 "Franz Peter Schubert",
 "ref":
 "pmb12729"}],
 "listPlace":
  [
 {
 "placeName":
 "Wien",
 "ref":
 "pmb50"}
 ,  {
 "placeName":
 "Salzburg",
 "ref":
 "pmb30"}
 ,  {
 "placeName":
 "Sternwartestraße",
 "ref":
 "pmb150"}
 ]
}
}, {
 "type":
 "kalliope-verbund",
 "color":
 "#003574",
 "caption":
 "Kalliope Verbundkatalog",
 "idno":
 "http://kalliope-verbund.info/DE-2498-HS00043229",
 "head":
 "Sebestyén-Ecker, Tera an Schnitzler, Arthur [Briefe]",
 "text":
 "3 Bl."
}] 